# From MPEC 2022-S20
C/1995 O1 (Hale-Bopp),e,89.3109,282.6845,130.4107,176.9399,0.0004188,0.99496865,0.0000,03/29.6235/1997,2000,g -2.0,4.0
# From NK 1615
P/1996 R2 (Lagerkvist),e,2.6010,40.0085,333.3953,3.774591,0.1344000,0.31457215,181.4475,10/25.0/2022,2000,g 11.5,4.0
# From MPC 75703
P/1998 VS24 (LINEAR),e,5.0265,159.0391,244.6261,4.525385,0.1023813,0.24315235,178.0300,10/25.0/2022,2000,g 13.0,2.0
# From NK 731
P/1999 RO28 (LONEOS),e,7.5656,137.8716,231.2981,3.426498,0.1553919,0.67252526,188.9601,10/25.0/2022,2000,g 20.0,2.0
# From MPC 75704
P/1999 XN120 (Catalina),e,5.0298,285.2963,161.6871,4.179005,0.1153705,0.21040467,226.7234,10/25.0/2022,2000,g 13.5,2.0
# From NK 744
P/2000 R2 (LINEAR),e,11.6866,160.2856,176.5887,3.467674,0.1526324,0.53142115,186.9969,10/25.0/2022,2000,g 18.0,4.0
# From MPC 43019
P/2001 H5 (NEAT),e,8.3670,328.6841,224.7372,6.095944,0.0654851,0.59820486,168.1764,10/25.0/2022,2000,g 12.0,4.0
# From MPC 75704
P/2001 Q6 (NEAT),e,56.9115,22.1848,42.9384,7.958707,0.0438976,0.82335235,338.4291,10/25.0/2022,2000,g 13.5,4.0
# From MPC 47727
P/2002 EJ57 (LINEAR),e,4.9776,330.3076,167.2882,6.463419,0.0599806,0.59239246,95.4076,10/25.0/2022,2000,g 12.5,4.0
# From MPC109588
P/2002 T6 (NEAT-LINEAR),e,10.8521,206.0674,219.5474,7.730179,0.0458585,0.56252538,330.9329,10/25.0/2022,2000,g 10.5,4.0
# From MPC 75007
C/2002 VQ94 (LINEAR),e,70.6913,35.1409,99.9819,184.2994,0.0003939,0.96306767,2.4077,10/25.0/2022,2000,g  9.5,2.0
# From MPC 50354
P/2003 F2 (NEAT),e,11.6113,358.9934,192.2621,6.501908,0.0594488,0.54138607,64.0761,10/25.0/2022,2000,g 16.5,2.0
# From MPC 50139
P/2003 QX29 (NEAT),e,11.3934,264.5148,37.6621,8.015810,0.0434293,0.47255165,315.8529,10/25.0/2022,2000,g  8.5,4.0
# From MPC105235
P/2003 T12 (SOHO),e,11.0225,174.5859,219.7497,2.585444,0.2370836,0.77014165,213.5465,10/25.0/2022,2000,g 17.0,4.0
# From MPEC 2022-TA6
P/2004 A1 (LONEOS),e,10.5517,124.8582,21.1029,7.971089,0.0437953,0.31012208,292.2940,10/25.0/2022,2000,g  6.5,4.0
# From MPC 54558
P/2004 DO29 (Spacewatch-LINEAR),e,14.5311,147.3768,40.5086,7.295733,0.0500150,0.44128096,330.6037,10/25.0/2022,2000,g 13.5,2.0
# From MPC 54823
P/2004 FY140 (LINEAR),e,2.1348,326.7802,242.1076,4.906916,0.0906757,0.16786026,240.9478,10/25.0/2022,2000,g 12.5,2.0
# From MPC 53304
P/2004 R3 (LINEAR-NEAT),e,12.7819,305.3197,37.6808,4.764040,0.0947853,0.25567281,37.8674,10/25.0/2022,2000,g 14.5,4.0
# From MPC 55521
P/2004 V3 (Siding Spring),e,50.4438,356.1295,322.4866,7.129934,0.0517697,0.44592875,339.5998,10/25.0/2022,2000,g 11.5,4.0
# From MPC 75705
P/2004 V5 (LINEAR-Hill),e,19.3431,47.7825,87.5665,7.989888,0.0436408,0.44476230,283.4541,10/25.0/2022,2000,g  8.0,4.0
# From MPC 54164
P/2005 E1 (Tubbiolo),e,4.2631,335.5757,193.8884,7.050388,0.0526483,0.37558466,342.1865,10/25.0/2022,2000,g 10.0,4.0
# From MPC 79019
P/2005 J1 (McNaught),e,31.7390,268.8281,338.9295,3.571900,0.1460008,0.56902255,215.3013,10/25.0/2022,2000,g 16.5,4.0
# From MPC 74246
P/2005 L1 (McNaught),e,7.7288,138.2221,150.0867,3.990826,0.1236260,0.21237067,43.8010,10/25.0/2022,2000,g  9.5,4.0
# From MPC 75706
P/2005 S2 (Skiff),e,3.1356,161.2229,229.4259,8.005091,0.0435166,0.19854629,260.9718,10/25.0/2022,2000,g  7.5,4.0
# From MPC 75706
P/2005 SB216 (LONEOS),e,24.1141,1.1238,83.2447,7.145501,0.0516006,0.46463133,299.1841,10/25.0/2022,2000,g 12.0,2.0
# From MPC 73461
P/2005 T3 (Read),e,6.2238,27.6685,6.6806,7.588366,0.0471500,0.17536968,294.4865,10/25.0/2022,2000,g  9.0,4.0
# From MPC 73461
P/2005 T4 (SWAN),e,160.2679,25.9157,41.8339,9.359078,0.0344235,0.92978205,214.2981,10/25.0/2022,2000,g 15.0,4.0
# From MPC 75706
P/2005 T5 (Broughton),e,21.3789,57.0011,304.6919,7.280600,0.0501711,0.55265802,311.6734,10/25.0/2022,2000,g 11.0,4.0
# From MPC 75707
P/2006 HR30 (Siding Spring),e,31.8601,309.8335,117.3768,7.808767,0.0451680,0.84310509,261.7001,10/25.0/2022,2000,g 11.0,4.0
# From MPEC 2022-TA7
P/2007 A2 (Christensen),e,26.4830,300.9126,186.6923,6.336342,0.0617940,0.55834812,357.9289,10/25.0/2022,2000,g 13.5,4.0
# From MPC 75707
P/2007 C2 (Catalina),e,8.6071,275.3003,180.1724,6.999124,0.0532278,0.47212029,293.7223,10/25.0/2022,2000,g 10.0,4.0
# From MPC 84315
C/2007 D1 (LINEAR),e,41.5016,171.2320,339.7996,1192,0.0000239,0.99262864,0.0000,06/07.1772/2007,2000,g  3.5,4.0
# From MPC 82314
P/2007 K2 (Gibbs),e,7.6275,188.6345,347.3488,7.275856,0.0502201,0.68311543,283.3095,10/25.0/2022,2000,g 14.0,4.0
# From MPC 60925
P/2007 Q2 (Gilmore),e,10.2027,172.1531,162.8537,5.657463,0.0732439,0.67001878,51.0538,10/25.0/2022,2000,g 16.0,4.0
# From MPC 73462
P/2007 S1 (Zhao),e,5.9610,141.3517,245.2139,3.820660,0.1319765,0.33917855,2.3914,10/25.0/2022,2000,g 13.0,4.0
# From MPC 61994
P/2007 T2 (Kowalski),e,9.7521,3.3772,359.6647,3.045619,0.1854346,0.78567728,287.9403,10/25.0/2022,2000,g 18.5,4.0
# From MPC 75709
P/2008 L2 (Hill),e,25.8682,218.0175,141.2630,6.027910,0.0665969,0.61347050,346.8098,10/25.0/2022,2000,g 12.5,4.0
# From MPC 64114
P/2008 O3 (Boattini),e,32.3317,47.5639,341.1678,8.215417,0.0418562,0.69636732,220.0972,10/25.0/2022,2000,g 13.0,4.0
# From MPC 75710
P/2008 Y3 (McNaught),e,38.7790,262.8573,238.0425,8.047600,0.0431722,0.44586368,218.5443,10/25.0/2022,2000,g  8.5,4.0
# From MPC 75710
P/2009 B1 (Boattini),e,22.2358,297.0747,128.9019,6.737066,0.0563635,0.63561076,284.2064,10/25.0/2022,2000,g 13.0,4.0
# From MPC 66466
C/2009 G1 (STEREO),e,108.5092,120.5598,175.5090,465.4318,0.0000982,0.99755197,0.0000,04/18.3690/2009,2000,g  9.0,4.0
# From MPC 75710
P/2009 O3 (Hill),e,16.2888,183.6850,154.4904,7.766943,0.0455333,0.68776415,222.9645,10/25.0/2022,2000,g 12.5,4.0
# From MPC 68902
P/2009 Q5 (McNaught),e,40.9846,160.2738,209.1073,7.429796,0.0486675,0.60984243,233.0560,10/25.0/2022,2000,g 10.0,4.0
# From MPC112389
P/2009 T2 (La Sagra),e,27.6054,215.8989,216.3255,7.718610,0.0459616,0.76644087,215.1687,10/25.0/2022,2000,g 14.0,4.0
# From MPC105235
P/2009 WX51 (Catalina),e,9.5947,31.5652,118.2619,3.082789,0.1820910,0.73939903,128.9470,10/25.0/2022,2000,g 19.0,2.0
# From MPC 74247
P/2009 Y2 (Kowalski),e,29.9619,262.0427,172.1340,6.549591,0.0588007,0.63677415,271.8383,10/25.0/2022,2000,g 13.0,4.0
# From MPC 75711
P/2010 A3 (Hill),e,14.8156,63.6319,42.2842,6.086709,0.0656342,0.73374104,302.9748,10/25.0/2022,2000,g 14.0,4.0
# From MPC 75008
P/2010 C1 (Scotti),e,9.1255,141.8705,3.3682,7.105280,0.0520394,0.26047638,246.8351,10/25.0/2022,2000,g  9.5,4.0
# From MPC 75008
P/2010 D2 (WISE),e,57.0986,319.8832,119.9313,6.721234,0.0565628,0.45142964,262.7812,10/25.0/2022,2000,g 16.0,4.0
# From MPC 75009
P/2010 E2 (Jarnac),e,15.3850,177.8200,8.3014,8.640231,0.0388075,0.71943113,178.4416,10/25.0/2022,2000,g 14.0,4.0
# From MPC 72851
P/2010 H2 (Vales),e,14.2790,64.1865,128.0168,3.832100,0.1313859,0.19663774,246.0871,10/25.0/2022,2000,g  6.0,4.0
# From MPC 70361
P/2010 H3 (SOHO),e,23.0821,77.1037,26.1375,3.036270,0.1862917,0.98537993,0.0000,02/07.8635/2021,2000,g 20.0,2.0
# From MPC 73463
P/2010 H4 (Scotti),e,2.3178,44.7256,179.3137,6.600287,0.0581246,0.26616043,262.9482,10/25.0/2022,2000,g 10.5,4.0
# From MPC 74637
P/2010 H5 (Scotti),e,14.0571,24.7931,174.7328,7.170970,0.0513260,0.15251582,236.3433,10/25.0/2022,2000,g 13.0,2.0
# From MPC 98558
P/2010 J3 (McMillan),e,13.2648,106.4681,157.5773,8.980314,0.0366241,0.72555638,162.7519,10/25.0/2022,2000,g 11.0,4.0
# From MPC 84315
P/2010 JC81 (WISE),e,38.8223,30.8686,12.4280,8.105848,0.0427077,0.77789839,179.4155,10/25.0/2022,2000,g  9.0,4.0
# From MPC 74248
P/2010 T2 (PANSTARRS),e,7.8878,58.5401,352.6287,5.571804,0.0749394,0.32362781,321.9608,10/25.0/2022,2000,g 11.5,4.0
# From MPC 98558
P/2010 TO20 (LINEAR-Grauer),e,2.4787,43.2840,267.5074,5.833092,0.0699610,0.05566247,357.5855,10/25.0/2022,2000,g  9.0,4.0
# From MPC 82316
P/2010 U1 (Boattini),e,8.2204,280.6797,86.2590,6.501594,0.0594531,0.24914167,276.0562,10/25.0/2022,2000,g  9.5,4.0
# From MPEC 2022-OB6
C/2010 U3 (Boattini),e,55.5551,42.9943,88.0393,2572,0.0000076,0.99671786,0.0000,02/25.2859/2019,2000,g  1.0,4.0
# From MPC 79021
P/2010 UH55 (Spacewatch),e,8.0382,232.9042,225.1447,6.654608,0.0574143,0.56373554,242.3625,10/25.0/2022,2000,g 11.0,4.0
# From MPC 75009
P/2010 WK (LINEAR),e,11.4016,11.3335,40.9815,5.762289,0.0712544,0.69050169,314.7250,10/25.0/2022,2000,g 14.5,2.0
# From MPC 84021
P/2011 C2 (Gibbs),e,10.8874,12.1202,160.5014,7.412565,0.0488373,0.26916332,193.6317,10/25.0/2022,2000,g  9.0,4.0
# From MPC 79866
P/2011 FR143 (Lemmon),e,15.9757,190.9492,349.9319,6.863624,0.0548118,0.45065757,233.9116,10/25.0/2022,2000,g 14.0,2.0
# From MPC 82317
P/2011 JB15 (Spacewatch-Boattini),e,19.1463,153.5883,111.0484,7.366263,0.0492985,0.31597156,193.9535,10/25.0/2022,2000,g  9.0,4.0
# From MPC 87913
P/2011 N1 (ASH),e,35.7666,77.5778,330.3874,6.244609,0.0631606,0.54501897,240.4573,10/25.0/2022,2000,g 11.5,4.0
# From MPC 75714
P/2011 NO1 (Elenin),e,15.2445,295.8270,263.7080,5.531934,0.0757510,0.77460934,326.0615,10/25.0/2022,2000,g 15.0,4.0
# From MPEC 2022-ED3
P/2011 P1 (McNaught),e,5.6609,4.2313,349.1422,7.459309,0.0483789,0.32765601,216.1366,10/25.0/2022,2000,g  9.0,4.0
# From MPEC 2022-HC2
P/2011 S1 (Gibbs),e,2.6874,218.8287,192.4977,8.583207,0.0391949,0.20149772,117.3123,10/25.0/2022,2000,g  8.0,4.0
# From MPC 79022
P/2011 UA134 (Spacewatch-PANSTARRS),e,10.4404,40.3986,32.4021,5.609688,0.0741816,0.62977565,297.2397,10/25.0/2022,2000,g 17.5,4.0
# From MPC 77406
P/2011 V1 (Boattini),e,7.3749,46.7831,269.3802,3.857170,0.1301071,0.55009916,193.0374,10/25.0/2022,2000,g 15.5,4.0
# From MPC 82718
P/2011 W1 (PANSTARRS),e,3.7186,161.7848,282.7806,4.666089,0.0977855,0.28803393,25.3372,10/25.0/2022,2000,g 11.5,4.0
# From MPC 79342
P/2011 Y2 (Boattini),e,6.3776,309.3296,131.9485,6.238035,0.0632605,0.71027822,245.8702,10/25.0/2022,2000,g 15.0,4.0
# From MPEC 2022-K19
P/2012 B1 (PANSTARRS),e,7.6101,36.2165,162.3840,6.531797,0.0590412,0.40897517,200.3647,10/25.0/2022,2000,g  9.0,4.0
# From MPC 78590
P/2012 C3 (PANSTARRS),e,9.0920,135.3677,344.9542,9.748681,0.0323806,0.63011148,359.9758,10/06.0/2011,2000,g 13.0,4.0
# From MPC 84931
